{"type": "FeatureCollection", "features": [{"type": "Feature", "properties": {"name": "Germany", "name_de": "Deutschland", "iso_a2": "DE"}, "geometry": {"type": "MultiPolygon", "coordinates": [[[[13.816, 48.766], [13.717, 48.522], [13.455, 48.573], [13.406, 48.377], [12.739, 48.113], [12.991, 47.847], [12.892, 47.724], [13.072, 47.659], [13.002, 47.466], [12.762, 47.667], [12.242, 47.732], [12.174, 47.605], [11.62, 47.59], [11.237, 47.394], [10.429, 47.577], [10.428, 47.396], [10.16, 47.271], [10.209, 47.372], [9.946, 47.541], [8.882, 47.656], [8.558, 47.801], [8.391, 47.665], [8.607, 47.656], [8.574, 47.592], [8.233, 47.622], [8.042, 47.561], [7.61, 47.565], [7.512, 47.707], [7.579, 48.114], [7.81, 48.615], [8.2, 48.959], [7.41, 49.169], [6.726, 49.156], [6.345, 49.455], [6.503, 49.796], [6.096, 50.049], [6.147, 50.214], [6.375, 50.315], [6.337, 50.481], [6.171, 50.518], [6.249, 50.614], [5.973, 50.782], [6.064, 50.908], [5.858, 51.019], [6.147, 51.152], [6.057, 51.212], [6.208, 51.388], [5.931, 51.816], [6.744, 51.908], [6.809, 51.98], [6.68, 52.06], [7.026, 52.231], [6.973, 52.451], [6.672, 52.542], [7.018, 52.626], [7.195, 53.245], [7.367, 53.303], [7.024, 53.376], [7.226, 53.666], [8.031, 53.708], [8.168, 53.553], [8.077, 53.469], [8.205, 53.411], [8.315, 53.475], [8.271, 53.613], [8.552, 53.544], [8.49, 53.486], [8.504, 53.358], [8.566, 53.547], [8.486, 53.7], [8.588, 53.87], [9.211, 53.872], [9.582, 53.591], [9.832, 53.544], [9.395, 53.831], [9.258, 53.886], [8.985, 53.897], [8.916, 53.937], [8.833, 54.036], [9.018, 54.098], [8.813, 54.18], [8.963, 54.318], [8.6, 54.338], [9.012, 54.506], [8.689, 54.735], [8.661, 54.896], [9.948, 54.78], [10.027, 54.56], [9.84, 54.475], [10.143, 54.492], [10.142, 54.324], [10.318, 54.443], [10.731, 54.31], [11.136, 54.386], [11.067, 54.184], [10.753, 54.05], [10.902, 53.961], [11.175, 54.018], [11.458, 53.906], [11.69, 54.155], [12.088, 54.194], [12.092, 54.114], [12.115, 54.098], [12.109, 54.183], [12.534, 54.488], [12.921, 54.433], [12.624, 54.423], [12.527, 54.372], [12.438, 54.388], [12.369, 54.269], [13.009, 54.438], [13.115, 54.28], [13.484, 54.091], [13.712, 54.174], [13.746, 54.036], [13.906, 53.943], [13.819, 53.878], [13.817, 53.853], [14.264, 53.752], [14.442, 53.252], [14.124, 52.851], [14.645, 52.577], [14.545, 52.382], [14.761, 52.077], [14.586, 51.804], [14.71, 51.53], [14.955, 51.435], [14.955, 51.064], [14.759, 50.81], [14.482, 51.037], [14.288, 51.037], [14.347, 50.88], [13.557, 50.707], [12.953, 50.404], [12.51, 50.389], [12.3, 50.161], [12.24, 50.257], [12.076, 50.315], [12.247, 50.045], [12.524, 49.905], [12.384, 49.743], [12.644, 49.429], [13.816, 48.766]]], [[[14.21, 53.938], [13.84, 53.85], [14.051, 54.005], [13.774, 54.023], [13.753, 54.153], [14.21, 53.938]]], [[[6.785, 53.62], [6.757, 53.563], [6.66, 53.599], [6.785, 53.62]]], [[[6.874, 53.673], [7.047, 53.694], [7.085, 53.687], [6.874, 53.673]]], [[[7.174, 53.701], [7.233, 53.729], [7.347, 53.723], [7.174, 53.701]]], [[[7.421, 53.721], [7.403, 53.737], [7.436, 53.728], [7.421, 53.721]]], [[[8.151, 53.714], [8.152, 53.739], [8.196, 53.728], [8.151, 53.714]]], [[[7.473, 53.732], [7.607, 53.763], [7.627, 53.751], [7.473, 53.732]]], [[[7.748, 53.761], [7.686, 53.781], [7.813, 53.783], [7.748, 53.761]]], [[[7.956, 53.783], [7.855, 53.785], [7.898, 53.796], [7.956, 53.783]]], [[[11.458, 53.961], [11.427, 54.023], [11.498, 54.023], [11.458, 53.961]]], [[[11.54, 54.057], [11.534, 54.085], [11.616, 54.112], [11.54, 54.057]]], [[[8.963, 54.524], [8.888, 54.468], [8.813, 54.482], [8.844, 54.52], [8.963, 54.524]]], [[[11.121, 54.536], [11.314, 54.414], [11.006, 54.468], [11.121, 54.536]]], [[[13.102, 54.596], [13.119, 54.586], [13.061, 54.468], [13.102, 54.596]]], [[[13.575, 54.472], [13.766, 54.345], [13.723, 54.278], [13.5, 54.345], [13.407, 54.228], [13.115, 54.338], [13.267, 54.386], [13.143, 54.543], [13.507, 54.488], [13.521, 54.571], [13.253, 54.565], [13.231, 54.653], [13.391, 54.688], [13.425, 54.585], [13.671, 54.566], [13.575, 54.472]]], [[[8.292, 54.667], [8.382, 54.639], [8.401, 54.633], [8.292, 54.667]]], [[[8.437, 54.748], [8.594, 54.722], [8.395, 54.715], [8.437, 54.748]]], [[[8.463, 55.051], [8.388, 54.894], [8.654, 54.894], [8.307, 54.865], [8.284, 54.742], [8.298, 54.913], [8.374, 55.035], [8.416, 55.065], [8.463, 55.051]]], [[[8.619, 54.493], [8.699, 54.559], [8.701, 54.548], [8.619, 54.493]]], [[[7.895, 54.195], [7.899, 54.178], [7.88, 54.194], [7.895, 54.195]]], [[[7.918, 54.187], [7.93, 54.195], [7.933, 54.19], [7.918, 54.187]]]]}}, {"type": "Feature", "properties": {"name": "Finland", "name_de": "Finnland", "iso_a2": "FI"}, "geometry": {"type": "MultiPolygon", "coordinates": [[[[28.954, 69.027], [28.41, 68.899], [28.801, 68.835], [28.448, 68.53], [28.664, 68.204], [29.331, 68.073], [30.009, 67.686], [29.052, 66.908], [29.9, 66.108], [30.112, 65.712], [29.703, 65.629], [29.839, 65.565], [29.58, 65.235], [29.85, 65.122], [29.598, 65.034], [29.634, 64.907], [30.119, 64.768], [30.181, 64.643], [29.955, 64.569], [30.032, 64.397], [30.558, 64.22], [30.552, 64.022], [29.981, 63.742], [31.204, 63.213], [31.57, 62.906], [31.244, 62.503], [29.203, 61.246], [27.705, 60.485], [27.215, 60.585], [26.962, 60.447], [26.483, 60.468], [26.753, 60.574], [26.659, 60.652], [26.342, 60.376], [25.917, 60.485], [26.108, 60.336], [25.842, 60.402], [25.93, 60.245], [25.669, 60.365], [25.029, 60.148], [24.554, 60.156], [24.594, 60.06], [24.446, 59.992], [24.32, 60.076], [23.429, 59.957], [23.546, 60.074], [23.251, 59.841], [22.905, 59.811], [23.247, 59.922], [23.326, 60.009], [23.111, 59.923], [23.258, 60.04], [22.875, 60.15], [23.081, 60.355], [22.525, 60.204], [22.648, 60.279], [22.459, 60.265], [22.624, 60.399], [21.785, 60.478], [21.841, 60.629], [21.612, 60.489], [21.409, 60.58], [21.353, 60.69], [21.47, 60.731], [21.329, 60.828], [21.428, 60.903], [21.299, 61.06], [21.482, 61.06], [21.443, 61.17], [21.558, 61.204], [21.449, 61.403], [21.572, 61.416], [21.422, 61.485], [21.716, 61.527], [21.237, 61.985], [21.374, 62.267], [21.134, 62.404], [21.194, 62.601], [21.065, 62.596], [21.114, 62.781], [21.391, 62.88], [21.444, 63.041], [21.688, 63.027], [21.497, 63.209], [21.895, 63.26], [21.984, 63.143], [22.33, 63.284], [22.196, 63.431], [22.402, 63.418], [22.281, 63.526], [22.407, 63.457], [22.589, 63.703], [22.773, 63.628], [22.903, 63.795], [23.416, 63.925], [23.396, 64.056], [23.605, 64.028], [23.574, 64.107], [24.344, 64.531], [24.538, 64.805], [25.095, 64.918], [25.355, 64.83], [25.191, 64.967], [25.444, 64.967], [25.211, 65.124], [25.327, 65.227], [25.324, 65.507], [24.676, 65.635], [24.55, 65.763], [24.711, 65.912], [24.206, 65.779], [23.689, 66.257], [23.652, 66.459], [23.882, 66.564], [24.004, 66.805], [23.581, 67.153], [23.765, 67.42], [23.431, 67.486], [23.554, 67.587], [23.481, 67.865], [23.662, 67.95], [22.808, 68.395], [22.072, 68.477], [20.623, 69.036], [21.072, 69.037], [21.098, 69.239], [21.639, 69.271], [22.409, 68.713], [23.198, 68.618], [23.929, 68.816], [24.905, 68.557], [25.201, 68.813], [25.796, 68.993], [25.737, 69.218], [26.005, 69.689], [26.534, 69.925], [27.1, 69.902], [27.867, 70.075], [28.405, 69.802], [29.147, 69.664], [29.345, 69.464], [28.852, 69.204], [28.954, 69.027]]], [[[22.349, 60.063], [22.443, 59.998], [22.383, 59.993], [22.349, 60.063]]], [[[21.497, 60.135], [21.571, 60.17], [21.654, 60.156], [21.613, 60.102], [21.497, 60.135]]], [[[21.696, 60.122], [21.854, 60.197], [21.888, 60.176], [21.696, 60.122]]], [[[21.271, 60.191], [21.369, 60.197], [21.449, 60.184], [21.271, 60.191]]], [[[22.042, 60.211], [22.009, 60.137], [21.935, 60.176], [22.042, 60.211]]], [[[25.836, 60.196], [25.822, 60.216], [25.876, 60.217], [25.836, 60.196]]], [[[22.269, 60.196], [22.246, 60.243], [22.292, 60.245], [22.269, 60.196]]], [[[25.684, 60.245], [25.57, 60.258], [25.582, 60.296], [25.684, 60.245]]], [[[22.466, 60.184], [22.956, 60.293], [22.73, 60.005], [22.47, 59.998], [22.422, 60.115], [22.6, 60.142], [22.415, 60.15], [22.448, 60.221], [22.466, 60.184]]], [[[22.08, 60.269], [22.25, 60.311], [22.34, 60.286], [22.08, 60.269]]], [[[22.477, 60.321], [22.313, 60.321], [22.398, 60.355], [22.477, 60.321]]], [[[21.998, 60.334], [21.794, 60.374], [21.808, 60.467], [21.932, 60.423], [21.998, 60.334]]], [[[21.761, 60.512], [21.682, 60.465], [21.764, 60.526], [21.761, 60.512]]], [[[21.278, 60.542], [21.25, 60.498], [21.229, 60.56], [21.278, 60.542]]], [[[21.329, 60.525], [21.482, 60.526], [21.443, 60.471], [21.329, 60.525]]], [[[21.271, 60.643], [21.233, 60.594], [21.214, 60.616], [21.271, 60.643]]], [[[21.318, 60.88], [21.27, 60.968], [21.374, 60.93], [21.318, 60.88]]], [[[21.422, 63.247], [21.243, 63.151], [21.079, 63.288], [21.287, 63.211], [21.422, 63.247]]], [[[21.374, 63.349], [21.315, 63.304], [21.229, 63.329], [21.374, 63.349]]], [[[24.993, 65.055], [24.735, 64.951], [24.563, 65.037], [24.835, 65.095], [24.993, 65.055]]], [[[23.87, 59.973], [23.894, 59.95], [23.847, 59.955], [23.87, 59.973]]], [[[22.855, 60.056], [22.927, 60.065], [22.872, 60.006], [22.855, 60.056]]], [[[22.892, 60.119], [22.947, 60.085], [22.845, 60.082], [22.892, 60.119]]], [[[21.962, 60.138], [22.012, 60.123], [21.93, 60.125], [21.962, 60.138]]], [[[22.288, 60.15], [22.375, 60.204], [22.386, 60.195], [22.288, 60.15]]], [[[22.006, 60.292], [21.973, 60.285], [22.008, 60.297], [22.006, 60.292]]], [[[21.974, 60.309], [21.91, 60.28], [21.875, 60.305], [21.974, 60.309]]], [[[22.256, 60.374], [22.191, 60.342], [22.157, 60.352], [22.256, 60.374]]], [[[22.138, 60.379], [22.208, 60.376], [22.104, 60.354], [22.138, 60.379]]], [[[21.308, 60.39], [21.355, 60.352], [21.294, 60.371], [21.308, 60.39]]], [[[26.575, 60.422], [26.653, 60.427], [26.507, 60.403], [26.575, 60.422]]], [[[21.989, 63.31], [22.047, 63.282], [21.978, 63.28], [21.989, 63.31]]], [[[22.114, 63.284], [22.069, 63.319], [22.231, 63.339], [22.114, 63.284]]], [[[22.076, 63.36], [21.996, 63.385], [22.096, 63.383], [22.076, 63.36]]], [[[22.764, 63.791], [22.74, 63.721], [22.681, 63.763], [22.764, 63.791]]], [[[22.457, 59.873], [22.444, 59.851], [22.414, 59.861], [22.457, 59.873]]], [[[21.587, 60.269], [21.627, 60.253], [21.563, 60.226], [21.587, 60.269]]], [[[21.246, 60.846], [21.263, 60.83], [21.186, 60.857], [21.246, 60.846]]], [[[21.38, 61.214], [21.352, 61.176], [21.343, 61.191], [21.38, 61.214]]], [[[21.485, 61.64], [21.508, 61.618], [21.46, 61.629], [21.485, 61.64]]], [[[21.196, 62.994], [21.147, 62.953], [21.13, 63.001], [21.196, 62.994]]]]}}]}